NORAD_CAT_ID,OBJECT_NAME,OBJECT_TYPE,EPOCH,MEAN_MOTION,ECCENTRICITY,INCLINATION,RA_OF_ASC_NODE,ARG_OF_PERICENTER,MEAN_ANOMALY,BSTAR,MEAN_MOTION_DOT,MEAN_MOTION_DDOT,TLE_LINE0,TLE_LINE1,TLE_LINE2,SEMIMAJOR_AXIS,PERIOD,APOGEE,PERIGEE,DECAYED
52999.0,STARLINK-4217,PAYLOAD,2023-08-03 17:15:56,15.08838502,9.43e-05,53.2178,34.2162,61.5478,298.5609,5.5102e-05,5.89e-06,0.0,0 STARLINK-4217,1 52999U 22076P   23215.71940126  .00000589  00000-0  55102-4 0  9993,2 52999  53.2178  34.2162 0000943  61.5478 298.5609 15.08838502 60057,6917.885,95.438,540.402,539.098,0.0
52999.0,STARLINK-4217,PAYLOAD,2023-08-05 18:32:52,15.08850962,9.01e-05,53.2189,24.9959,66.5512,293.5575,0.00023434,3.445e-05,0.0,0 STARLINK-4217,1 52999U 22076P   23217.77283416  .00003445  00000-0  23434-3 0  9999,2 52999  53.2189  24.9959 0000901  66.5512 293.5575 15.08850962 60362,6917.847,95.437,540.335,539.089,0.0
52999.0,STARLINK-4217,PAYLOAD,2023-08-06 05:40:35,15.08832575,7e-05,53.2183,22.9137,134.6758,225.4291,-4.3904e-05,-9.86e-06,0.0,0 STARLINK-4217,1 52999U 22076P   23218.23652538 -.00000986  00000-0 -43904-4 0  9990,2 52999  53.2183  22.9137 0000700 134.6758 225.4291 15.08832575 60435,6917.903,95.438,540.252,539.284,0.0
52999.0,STARLINK-4217,PAYLOAD,2023-08-06 19:59:04,15.08825528,8.05e-05,53.2181,20.2387,89.4367,270.6718,-8.1385e-05,-1.582e-05,0.0,0 STARLINK-4217,1 52999U 22076P   23218.83269641 -.00001582  00000-0 -81385-4 0  9993,2 52999  53.2181  20.2387 0000805  89.4367 270.6718 15.08825528 60526,6917.925,95.438,540.347,539.233,0.0
52999.0,STARLINK-4217,PAYLOAD,2023-08-07 10:17:33,15.08832584,6.88e-05,53.2177,17.5625,100.5561,259.5508,2.6539e-05,1.35e-06,0.0,0 STARLINK-4217,1 52999U 22076P   23219.42885655  .00000135  00000-0  26539-4 0  9999,2 52999  53.2177  17.5625 0000688 100.5561 259.5508 15.08832584 60618,6917.903,95.438,540.244,539.292,0.0
52999.0,STARLINK-4217,PAYLOAD,2023-08-07 19:49:52,15.08850214,7.16e-05,53.2172,15.7794,107.5725,252.5345,0.0010706,0.00016796,0.0,0 STARLINK-4217,1 52999U 22076P   23219.82629722  .00016796  00000-0  10706-2 0  9991,2 52999  53.2172  15.7794 0000716 107.5725 252.5345 15.08850214 60679,6917.849,95.437,540.209,539.219,0.0
52999.0,STARLINK-4217,PAYLOAD,2023-08-08 05:22:10,15.08850695,6.37e-05,53.2166,13.9931,125.3593,234.7458,0.00067993,0.00010553,0.0,0 STARLINK-4217,1 52999U 22076P   23220.22373566  .00010553  00000-0  67993-3 0  9995,2 52999  53.2166  13.9931 0000637 125.3593 234.7458 15.08850695 60735,6917.848,95.437,540.153,539.272,0.0
52999.0,STARLINK-4217,PAYLOAD,2023-08-09 05:12:57,15.08855447,0.0001038,53.2157,9.534,81.8211,278.2899,0.00035713,5.403e-05,0.0,0 STARLINK-4217,1 52999U 22076P   23221.21732804  .00005403  00000-0  35713-3 0  9992,2 52999  53.2157   9.5340 0001038  81.8211 278.2899 15.08855447 60887,6917.833,95.437,540.416,538.98,0.0
52999.0,STARLINK-4217,PAYLOAD,2023-08-10 16:11:25,15.08846907,7.38e-05,53.2178,2.9925,83.3081,276.7995,0.00048278,7.405e-05,0.0,0 STARLINK-4217,1 52999U 22076P   23222.67460635  .00007405  00000-0  48278-3 0  9997,2 52999  53.2178   2.9925 0000738  83.3081 276.7995 15.08846907 61101,6917.859,95.437,540.235,539.214,0.0
52999.0,STARLINK-4217,PAYLOAD,2023-08-11 09:40:40,15.08845616,8.34e-05,53.218,359.7219,73.7698,286.3386,0.00093472,0.00014622,0.0,0 STARLINK-4217,1 52999U 22076P   23223.40324787  .00014622  00000-0  93472-3 0  9991,2 52999  53.2180 359.7219 0000834  73.7698 286.3386 15.08845616 61216,6917.863,95.437,540.305,539.151,0.0
52999.0,STARLINK-4217,PAYLOAD,2023-08-12 01:34:31,15.08843404,8.37e-05,53.2178,356.7478,89.2198,270.889,0.00039917,6.071e-05,0.0,0 STARLINK-4217,1 52999U 22076P   23224.06564716  .00006071  00000-0  39917-3 0  9995,2 52999  53.2178 356.7478 0000837  89.2198 270.8890 15.08843404 61319,6917.87,95.437,540.314,539.156,0.0
52999.0,STARLINK-4217,PAYLOAD,2023-08-12 09:31:27,15.08836516,8.43e-05,53.2175,355.2631,91.2987,268.8102,-1.2419e-05,-4.85e-06,0.0,0 STARLINK-4217,1 52999U 22076P   23224.39684862 -.00000485  00000-0 -12419-4 0  9990,2 52999  53.2175 355.2631 0000843  91.2987 268.8102 15.08836516 61361,6917.891,95.438,540.339,539.173,0.0
52999.0,STARLINK-4217,PAYLOAD,2023-08-13 12:33:01,15.08837916,8.19e-05,53.2167,350.2082,108.3453,251.7628,5.9743e-05,6.63e-06,0.0,0 STARLINK-4217,1 52999U 22076P   23225.52293040  .00000663  00000-0  59743-4 0  9997,2 52999  53.2167 350.2082 0000819 108.3453 251.7628 15.08837916 61536,6917.887,95.438,540.318,539.185,0.0
52999.0,STARLINK-4217,PAYLOAD,2023-08-15 01:06:53,15.08844035,7.89e-05,53.2171,343.3681,79.2911,280.817,0.00022183,3.245e-05,0.0,0 STARLINK-4217,1 52999U 22076P   23227.04645151  .00003245  00000-0  22183-3 0  9996,2 52999  53.2171 343.3681 0000789  79.2911 280.8170 15.08844035 61760,6917.868,95.437,540.279,539.187,0.0
52999.0,STARLINK-4217,PAYLOAD,2023-08-16 00:57:40,15.08841511,0.0001674,53.2168,338.9058,82.0539,278.0643,8.9184e-05,1.132e-05,0.0,0 STARLINK-4217,1 52999U 22076P   23228.04005268  .00001132  00000-0  89184-4 0  9994,2 52999  53.2168 338.9058 0001674  82.0539 278.0643 15.08841511 61913,6917.876,95.437,540.899,538.583,0.0
52999.0,STARLINK-4217,PAYLOAD,2023-08-17 10:20:46,15.08841145,9.54e-05,53.217,332.6625,84.9698,275.1403,7.3075e-05,8.75e-06,0.0,0 STARLINK-4217,1 52999U 22076P   23229.43109336  .00000875  00000-0  73075-4 0  9994,2 52999  53.2170 332.6625 0000954  84.9698 275.1403 15.08841145 62123,6917.877,95.437,540.402,539.082,0.0
52999.0,STARLINK-4217,PAYLOAD,2023-08-17 16:42:18,15.0885063,0.0001015,53.217,331.472,102.9566,257.154,0.00014267,1.984e-05,0.0,0 STARLINK-4217,1 52999U 22076P   23229.69604771  .00001984  00000-0  14267-3 0  9994,2 52999  53.2170 331.4720 0001015 102.9566 257.1540 15.08850630 62165,6917.848,95.437,540.415,539.011,0.0
52999.0,STARLINK-4217,PAYLOAD,2023-08-18 10:11:33,15.08833899,8.72e-05,53.2168,328.2034,85.7425,274.3667,3.4018e-05,2.54e-06,0.0,0 STARLINK-4217,1 52999U 22076P   23230.42469781  .00000254  00000-0  34018-4 0  9993,2 52999  53.2168 328.2034 0000872  85.7425 274.3667 15.08833899 62277,6917.899,95.438,540.367,539.161,0.0
52999.0,STARLINK-4217,PAYLOAD,2023-08-19 11:37:43,15.08842821,8.74e-05,53.2165,323.4452,90.2771,269.8321,0.00015487,2.178e-05,0.0,0 STARLINK-4217,1 52999U 22076P   23231.48453409  .00002178  00000-0  15487-3 0  9995,2 52999  53.2165 323.4452 0000874  90.2771 269.8321 15.08842821 62431,6917.872,95.437,540.341,539.132,0.0
52999.0,STARLINK-4217,PAYLOAD,2023-08-20 01:56:12,15.08836459,8.56e-05,53.2168,320.7699,88.9665,271.1425,0.00010004,1.305e-05,0.0,0 STARLINK-4217,1 52999U 22076P   23232.08069820  .00001305  00000-0  10004-3 0  9993,2 52999  53.2168 320.7699 0000856  88.9665 271.1425 15.08836459 62524,6917.891,95.438,540.348,539.164,0.0
52999.0,STARLINK-4217,PAYLOAD,2023-08-21 12:54:41,15.08841449,9.2e-05,53.2174,314.228,80.4747,279.6349,9.698e-05,1.256e-05,0.0,0 STARLINK-4217,1 52999U 22076P   23233.53797987  .00001256  00000-0  96980-4 0  9999,2 52999  53.2174 314.2280 0000920  80.4747 279.6349 15.08841449 62742,6917.876,95.437,540.377,539.105,0.0
52999.0,STARLINK-4217,PAYLOAD,2023-08-22 23:53:10,15.08845569,0.0001179,53.2159,307.6861,66.0316,294.08,7.0599e-05,8.36e-06,0.0,0 STARLINK-4217,1 52999U 22076P   23234.99525881  .00000836  00000-0  70599-4 0  9993,2 52999  53.2159 307.6861 0001179  66.0316 294.0800 15.08845569 62969,6917.863,95.437,540.544,538.913,0.0
52999.0,STARLINK-4217,PAYLOAD,2023-08-24 10:51:39,15.08837947,0.0001069,53.2165,301.1429,79.027,281.0843,2.0106e-05,3.2e-07,0.0,0 STARLINK-4217,1 52999U 22076P   23236.45254440  .00000032  00000-0  20106-4 0  9993,2 52999  53.2165 301.1429 0001069  79.0270 281.0843 15.08837947 62713,6917.887,95.438,540.491,539.012,0.0
52999.0,STARLINK-4217,PAYLOAD,2023-08-25 10:42:26,15.08846094,0.0001082,53.2164,296.6824,79.8497,280.2617,7.7672e-05,9.49e-06,0.0,0 STARLINK-4217,1 52999U 22076P   23237.44613635  .00000949  00000-0  77672-4 0  9995,2 52999  53.2164 296.6824 0001082  79.8497 280.2617 15.08846094 63335,6917.862,95.437,540.475,538.978,0.0
52999.0,STARLINK-4217,PAYLOAD,2023-08-25 23:25:31,15.08836418,0.000115,53.216,294.3036,75.5119,284.6,8.3469e-05,1.041e-05,0.0,0 STARLINK-4217,1 52999U 22076P   23237.97606231  .00001041  00000-0  83469-4 0  9992,2 52999  53.2160 294.3036 0001150  75.5119 284.6000 15.08836418 63413,6917.891,95.438,540.552,538.961,0.0
52999.0,STARLINK-4217,PAYLOAD,2023-08-26 10:33:14,15.08833893,0.000112,53.2161,292.222,77.9739,282.1378,5.6358e-05,6.09e-06,0.0,0 STARLINK-4217,1 52999U 22076P   23238.43974634  .00000609  00000-0  56358-4 0  9995,2 52999  53.2161 292.2220 0001120  77.9739 282.1378 15.08833893 63018,6917.899,95.438,540.539,538.989,0.0
52999.0,STARLINK-4217,PAYLOAD,2023-08-27 04:02:28,15.08839188,0.0001107,53.2159,288.9501,85.1413,274.9706,6.0055e-05,6.68e-06,0.0,0 STARLINK-4217,1 52999U 22076P   23239.16838347  .00000668  00000-0  60055-4 0  9990,2 52999  53.2159 288.9501 0001107  85.1413 274.9706 15.08839188 63594,6917.883,95.438,540.514,538.982,0.0
52999.0,STARLINK-4217,PAYLOAD,2023-08-27 08:48:37,15.08842454,0.0001113,53.2158,288.0581,86.3199,273.7921,7.6729e-05,9.34e-06,0.0,0 STARLINK-4217,1 52999U 22076P   23239.36710108  .00000934  00000-0  76729-4 0  9997,2 52999  53.2158 288.0581 0001113  86.3199 273.7921 15.08842454 63151,6917.873,95.437,540.508,538.968,0.0
52999.0,STARLINK-4217,PAYLOAD,2023-08-28 10:14:48,15.08832016,0.0001139,53.2158,283.3002,86.1894,273.9229,6.8725e-05,8.06e-06,0.0,0 STARLINK-4217,1 52999U 22076P   23240.42695022  .00000806  00000-0  68725-4 0  9998,2 52999  53.2158 283.3002 0001139  86.1894 273.9229 15.08832016 63780,6917.905,95.438,540.558,538.982,0.0
52999.0,STARLINK-4217,PAYLOAD,2023-08-28 19:47:07,15.08837478,0.0001143,53.2157,281.5156,86.4082,273.7041,5.8745e-05,6.47e-06,0.0,0 STARLINK-4217,1 52999U 22076P   23240.82438778  .00000647  00000-0  58745-4 0  9999,2 52999  53.2157 281.5156 0001143  86.4082 273.7041 15.08837478 63378,6917.888,95.438,540.544,538.962,0.0
